start=new Date('2022-05-15T00:00:00.000Z').valueOf();
sats=[{"REF_FRAME":"TEME","NORAD_CAT_ID":"52264","EPHEMERIS_TYPE":"0","DECAY_DATE":null,"OBJECT_TYPE":"PAYLOAD","MEAN_MOTION_DOT":"-0.00717593","PERIOD":"91.913","INCLINATION":"53.2170","FILE":"3445938","EPOCH":"2022-05-14T22:00:00.999936","MEAN_MOTION":"15.66706696","LAUNCH_DATE":"2022-04-21","REV_AT_EPOCH":"130","TLE_LINE2":"2 52264  53.2170 259.9376 0001633  35.8662  78.2539 15.66706696  1303","MEAN_ELEMENT_THEORY":"SGP4","TIME_SYSTEM":"UTC","TLE_LINE1":"1 52264U 22041D   22134.91667824 -.00717593  00000-0 -72975-2 0  9999","CENTER_NAME":"EARTH","APOAPSIS":"369.438","ELEMENT_SET_NO":"999","MEAN_MOTION_DDOT":"0.0000000000000","COUNTRY_CODE":"US","CLASSIFICATION_TYPE":"U","SITE":"AFETR","BSTAR":"-0.00729750000000","ARG_OF_PERICENTER":"35.8662","PERIAPSIS":"367.235","RCS_SIZE":"LARGE","RA_OF_ASC_NODE":"259.9376","ECCENTRICITY":"0.00016330","SEMIMAJOR_AXIS":"6746.472","OBJECT_NAME":"STARLINK-3795","MEAN_ANOMALY":"78.2539","GP_ID":"203566088","OBJECT_ID":"2022-041D"},{"RA_OF_ASC_NODE":"259.9412","ECCENTRICITY":"0.00015510","SEMIMAJOR_AXIS":"6746.458","OBJECT_NAME":"STARLINK-3740","MEAN_ANOMALY":"77.0168","GP_ID":"203566269","OBJECT_ID":"2022-041E","CENTER_NAME":"EARTH","APOAPSIS":"369.370","ELEMENT_SET_NO":"999","MEAN_MOTION_DDOT":"0.0000000000000","COUNTRY_CODE":"US","CLASSIFICATION_TYPE":"U","SITE":"AFETR","BSTAR":"-0.00729740000000","ARG_OF_PERICENTER":"37.7679","PERIAPSIS":"367.277","RCS_SIZE":"LARGE","EPOCH":"2022-05-14T22:00:00.999936","MEAN_MOTION":"15.66711381","LAUNCH_DATE":"2022-04-21","REV_AT_EPOCH":"130","TLE_LINE2":"2 52265  53.2171 259.9412 0001551  37.7679  77.0168 15.66711381  1306","MEAN_ELEMENT_THEORY":"SGP4","TIME_SYSTEM":"UTC","TLE_LINE1":"1 52265U 22041E   22134.91667824 -.00717692  00000-0 -72974-2 0  9999","REF_FRAME":"TEME","EPHEMERIS_TYPE":"0","NORAD_CAT_ID":"52265","DECAY_DATE":null,"PERIOD":"91.912","OBJECT_TYPE":"PAYLOAD","MEAN_MOTION_DOT":"-0.00717692","INCLINATION":"53.2171","FILE":"3445938"},{"RA_OF_ASC_NODE":"259.9435","ECCENTRICITY":"0.00015220","SEMIMAJOR_AXIS":"6746.445","OBJECT_NAME":"STARLINK-3739","MEAN_ANOMALY":"75.3635","GP_ID":"203566526","OBJECT_ID":"2022-041F","CENTER_NAME":"EARTH","APOAPSIS":"369.337","ELEMENT_SET_NO":"999","COUNTRY_CODE":"US","MEAN_MOTION_DDOT":"0.0000000000000","CLASSIFICATION_TYPE":"U","SITE":"AFETR","BSTAR":"-0.00729600000000","ARG_OF_PERICENTER":"40.0859","PERIAPSIS":"367.283","RCS_SIZE":"LARGE","EPOCH":"2022-05-14T22:00:00.999936","MEAN_MOTION":"15.66716033","LAUNCH_DATE":"2022-04-21","REV_AT_EPOCH":"130","TLE_LINE2":"2 52266  53.2171 259.9435 0001522  40.0859  75.3635 15.66716033  1306","MEAN_ELEMENT_THEORY":"SGP4","TIME_SYSTEM":"UTC","TLE_LINE1":"1 52266U 22041F   22134.91667824 -.00717685  00000-0 -72960-2 0  9997","REF_FRAME":"TEME","NORAD_CAT_ID":"52266","EPHEMERIS_TYPE":"0","DECAY_DATE":null,"MEAN_MOTION_DOT":"-0.00717685","OBJECT_TYPE":"PAYLOAD","PERIOD":"91.912","FILE":"3445938","INCLINATION":"53.2171"},{"MEAN_ELEMENT_THEORY":"SGP4","TLE_LINE2":"2 52267  53.2171 259.9470 0001490  42.0213  74.0927 15.66720680  1309","TIME_SYSTEM":"UTC","TLE_LINE1":"1 52267U 22041G   22134.91667824 -.00717676  00000-0 -72946-2 0  9992","EPOCH":"2022-05-14T22:00:00.999936","MEAN_MOTION":"15.66720680","REV_AT_EPOCH":"130","LAUNCH_DATE":"2022-04-21","DECAY_DATE":null,"MEAN_MOTION_DOT":"-0.00717676","OBJECT_TYPE":"PAYLOAD","PERIOD":"91.912","INCLINATION":"53.2171","FILE":"3445938","REF_FRAME":"TEME","NORAD_CAT_ID":"52267","EPHEMERIS_TYPE":"0","MEAN_ANOMALY":"74.0927","GP_ID":"203566332","OBJECT_ID":"2022-041G","RA_OF_ASC_NODE":"259.9470","SEMIMAJOR_AXIS":"6746.432","ECCENTRICITY":"0.00014900","OBJECT_NAME":"STARLINK-3748","ARG_OF_PERICENTER":"42.0213","RCS_SIZE":"LARGE","PERIAPSIS":"367.291","APOAPSIS":"369.302","CENTER_NAME":"EARTH","COUNTRY_CODE":"US","MEAN_MOTION_DDOT":"0.0000000000000","ELEMENT_SET_NO":"999","SITE":"AFETR","CLASSIFICATION_TYPE":"U","BSTAR":"-0.00729460000000"},{"MEAN_MOTION":"15.66734597","EPOCH":"2022-05-14T22:00:00.999936","LAUNCH_DATE":"2022-04-21","REV_AT_EPOCH":"130","TIME_SYSTEM":"UTC","MEAN_ELEMENT_THEORY":"SGP4","TLE_LINE2":"2 52268  53.2171 259.9552 0001614  36.1133  81.9941 15.66734597  1309","TLE_LINE1":"1 52268U 22041H   22134.91667824 -.00717705  00000-0 -72905-2 0  9991","REF_FRAME":"TEME","EPHEMERIS_TYPE":"0","NORAD_CAT_ID":"52268","OBJECT_TYPE":"PAYLOAD","MEAN_MOTION_DOT":"-0.00717705","PERIOD":"91.911","DECAY_DATE":null,"INCLINATION":"53.2171","FILE":"3445938","RA_OF_ASC_NODE":"259.9552","OBJECT_NAME":"STARLINK-3746","ECCENTRICITY":"0.00016140","SEMIMAJOR_AXIS":"6746.392","GP_ID":"203566433","MEAN_ANOMALY":"81.9941","OBJECT_ID":"2022-041H","ELEMENT_SET_NO":"999","MEAN_MOTION_DDOT":"0.0000000000000","COUNTRY_CODE":"US","CENTER_NAME":"EARTH","APOAPSIS":"369.346","BSTAR":"-0.00729050000000","CLASSIFICATION_TYPE":"U","SITE":"AFETR","ARG_OF_PERICENTER":"36.1133","PERIAPSIS":"367.168","RCS_SIZE":"LARGE"},{"RCS_SIZE":"LARGE","PERIAPSIS":"367.265","ARG_OF_PERICENTER":"40.5747","SITE":"AFETR","CLASSIFICATION_TYPE":"U","BSTAR":"-0.00729290000000","APOAPSIS":"369.302","CENTER_NAME":"EARTH","MEAN_MOTION_DDOT":"0.0000000000000","COUNTRY_CODE":"US","ELEMENT_SET_NO":"999","OBJECT_ID":"2022-041J","MEAN_ANOMALY":"76.2038","GP_ID":"203566615","SEMIMAJOR_AXIS":"6746.418","ECCENTRICITY":"0.00015100","OBJECT_NAME":"STARLINK-3791","RA_OF_ASC_NODE":"259.9498","FILE":"3445938","INCLINATION":"53.2171","DECAY_DATE":null,"OBJECT_TYPE":"PAYLOAD","PERIOD":"91.911","MEAN_MOTION_DOT":"-0.00717651","NORAD_CAT_ID":"52269","EPHEMERIS_TYPE":"0","REF_FRAME":"TEME","TLE_LINE1":"1 52269U 22041J   22134.91667824 -.00717651  00000-0 -72929-2 0  9998","MEAN_ELEMENT_THEORY":"SGP4","TLE_LINE2":"2 52269  53.2171 259.9498 0001510  40.5747  76.2038 15.66725306  1306","TIME_SYSTEM":"UTC","REV_AT_EPOCH":"130","LAUNCH_DATE":"2022-04-21","EPOCH":"2022-05-14T22:00:00.999936","MEAN_MOTION":"15.66725306"},{"LAUNCH_DATE":"2022-04-21","REV_AT_EPOCH":"130","EPOCH":"2022-05-14T22:00:00.999936","MEAN_MOTION":"15.66735303","TLE_LINE1":"1 52270U 22041K   22134.91667824 -.00717729  00000-0 -72908-2 0  9993","TLE_LINE2":"2 52270  53.2171 259.9559 0001510  40.2833  79.0246 15.66735303  1309","MEAN_ELEMENT_THEORY":"SGP4","TIME_SYSTEM":"UTC","EPHEMERIS_TYPE":"0","NORAD_CAT_ID":"52270","REF_FRAME":"TEME","FILE":"3445938","INCLINATION":"53.2171","DECAY_DATE":null,"PERIOD":"91.911","OBJECT_TYPE":"PAYLOAD","MEAN_MOTION_DOT":"-0.00717729","ECCENTRICITY":"0.00015100","SEMIMAJOR_AXIS":"6746.390","OBJECT_NAME":"STARLINK-3804","RA_OF_ASC_NODE":"259.9559","OBJECT_ID":"2022-041K","MEAN_ANOMALY":"79.0246","GP_ID":"203566182","CLASSIFICATION_TYPE":"U","SITE":"AFETR","BSTAR":"-0.00729080000000","CENTER_NAME":"EARTH","APOAPSIS":"369.273","ELEMENT_SET_NO":"999","MEAN_MOTION_DDOT":"0.0000000000000","COUNTRY_CODE":"US","PERIAPSIS":"367.236","RCS_SIZE":"LARGE","ARG_OF_PERICENTER":"40.2833"},{"DECAY_DATE":null,"OBJECT_TYPE":"PAYLOAD","MEAN_MOTION_DOT":"-0.00719386","PERIOD":"91.911","INCLINATION":"53.2171","FILE":"3445938","REF_FRAME":"TEME","EPHEMERIS_TYPE":"0","NORAD_CAT_ID":"52271","MEAN_ELEMENT_THEORY":"SGP4","TLE_LINE2":"2 52271  53.2171 259.9527 0001379  39.9115  77.5310 15.66731018  1300","TIME_SYSTEM":"UTC","TLE_LINE1":"1 52271U 22041L   22134.91667824 -.00719386  00000-0 -73107-2 0  9997","EPOCH":"2022-05-14T22:00:00.999936","MEAN_MOTION":"15.66731018","LAUNCH_DATE":"2022-04-21","REV_AT_EPOCH":"130","ARG_OF_PERICENTER":"39.9115","PERIAPSIS":"367.337","RCS_SIZE":"LARGE","CENTER_NAME":"EARTH","APOAPSIS":"369.197","ELEMENT_SET_NO":"999","COUNTRY_CODE":"US","MEAN_MOTION_DDOT":"0.0000000000000","CLASSIFICATION_TYPE":"U","SITE":"AFETR","BSTAR":"-0.00731070000000","MEAN_ANOMALY":"77.5310","GP_ID":"203566677","OBJECT_ID":"2022-041L","RA_OF_ASC_NODE":"259.9527","ECCENTRICITY":"0.00013790","SEMIMAJOR_AXIS":"6746.402","OBJECT_NAME":"STARLINK-3788"},{"REF_FRAME":"TEME","EPHEMERIS_TYPE":"0","NORAD_CAT_ID":"52272","DECAY_DATE":null,"PERIOD":"91.910","OBJECT_TYPE":"PAYLOAD","MEAN_MOTION_DOT":"-0.00717751","INCLINATION":"53.2171","FILE":"3445938","EPOCH":"2022-05-14T22:00:00.999936","MEAN_MOTION":"15.66744443","REV_AT_EPOCH":"130","LAUNCH_DATE":"2022-04-21","TLE_LINE2":"2 52272  53.2171 259.9574 0001562  38.8324  81.8044 15.66744443  1305","MEAN_ELEMENT_THEORY":"SGP4","TIME_SYSTEM":"UTC","TLE_LINE1":"1 52272U 22041M   22134.91667824 -.00717751  00000-0 -72882-2 0  9991","APOAPSIS":"369.282","CENTER_NAME":"EARTH","MEAN_MOTION_DDOT":"0.0000000000000","COUNTRY_CODE":"US","ELEMENT_SET_NO":"999","SITE":"AFETR","CLASSIFICATION_TYPE":"U","BSTAR":"-0.00728820000000","ARG_OF_PERICENTER":"38.8324","RCS_SIZE":"LARGE","PERIAPSIS":"367.175","RA_OF_ASC_NODE":"259.9574","SEMIMAJOR_AXIS":"6746.363","ECCENTRICITY":"0.00015620","OBJECT_NAME":"STARLINK-3781","MEAN_ANOMALY":"81.8044","GP_ID":"203566089","OBJECT_ID":"2022-041M"},{"EPOCH":"2022-05-14T22:00:00.999936","MEAN_MOTION":"15.73292723","LAUNCH_DATE":"2022-04-21","REV_AT_EPOCH":"130","TLE_LINE2":"2 52273  53.2153 259.8543 0002317  19.4213 148.8596 15.73292723  1305","MEAN_ELEMENT_THEORY":"SGP4","TIME_SYSTEM":"UTC","TLE_LINE1":"1 52273U 22041N   22134.91667824 -.00046996  00000-0 -33092-3 0  9999","REF_FRAME":"TEME","EPHEMERIS_TYPE":"0","NORAD_CAT_ID":"52273","DECAY_DATE":null,"MEAN_MOTION_DOT":"-0.00046996","OBJECT_TYPE":"PAYLOAD","PERIOD":"91.528","INCLINATION":"53.2153","FILE":"3445938","RA_OF_ASC_NODE":"259.8543","ECCENTRICITY":"0.00023170","SEMIMAJOR_AXIS":"6727.631","OBJECT_NAME":"STARLINK-3782","MEAN_ANOMALY":"148.8596","GP_ID":"203566270","OBJECT_ID":"2022-041N","CENTER_NAME":"EARTH","APOAPSIS":"351.055","ELEMENT_SET_NO":"999","MEAN_MOTION_DDOT":"0.0000000000000","COUNTRY_CODE":"US","CLASSIFICATION_TYPE":"U","SITE":"AFETR","BSTAR":"-0.00033092000000","ARG_OF_PERICENTER":"19.4213","PERIAPSIS":"347.937","RCS_SIZE":"LARGE"}];
